ONEWEB-0230             
1 48769U 21045C   26165.65485620 -.00000028  00000+0 -10757-3 0  9996
2 48769  87.9001 259.7080 0002025  95.5896 264.5466 13.15547808244334
ONEWEB-0237             
1 48770U 21045D   26165.64375108  .00000140  00000+0  33730-3 0  9995
2 48770  87.9002 259.7121 0001717 101.8921 258.2402 13.15547117244052
ONEWEB-0235             
1 48771U 21045E   26165.77052788  .00000000  00000+0 -35279-4 0  9993
2 48771  87.9008 259.6724 0001620 108.0102 252.1205 13.15548352244067
ONEWEB-0242             
1 48772U 21045F   26165.76417271 -.00000105  00000+0 -31280-3 0  9999
2 48772  87.9011 259.6705 0001787  98.6859 261.4474 13.15546788244105
ONEWEB-0241             
1 48773U 21045G   26165.52334352 -.00000139  00000+0 -40374-3 0  9993
2 48773  87.8998 259.7370 0001801 113.0036 247.1285 13.15548871243985
ONEWEB-0243             
1 48774U 21045H   26165.78320051  .00000115  00000+0  27178-3 0  9992
2 48774  87.9001 259.6975 0001481  93.2013 266.9287 13.15549015244040
ONEWEB-0222             
1 48775U 21045J   26165.76656108 -.00000018  00000+0 -81903-4 0  9997
2 48775  87.9007 259.6683 0001805 106.4880 253.6449 13.15548645244087
ONEWEB-0244             
1 48776U 21045K   26165.79271028  .00000082  00000+0  18314-3 0  9999
2 48776  87.9015 259.6575 0001824 101.0589 259.0747 13.15548222244650
ONEWEB-0247             
1 48777U 21045L   26165.78953324  .00000125  00000+0  29912-3 0  9999
2 48777  87.9001 259.6907 0001130 101.9341 258.1916 13.15547418244092
ONEWEB-0245             
1 48778U 21045M   26165.78477973  .00000136  00000+0  32844-3 0  9991
2 48778  87.9010 259.6706 0001917 106.2232 253.9109 13.15547478244060
ONEWEB-0229             
1 48779U 21045N   26165.78003144  .00000082  00000+0  18404-3 0  9993
2 48779  87.9009 259.6695 0001840  98.6901 261.4438 13.15548784244091
ONEWEB-0228             
1 48780U 21045P   26165.81342954  .00000016  00000+0  96630-5 0  9990
2 48780  87.9015 259.6554 0001892 102.3932 257.7410 13.15546712244017
ONEWEB-0232             
1 48781U 21045Q   26165.78794188  .00000148  00000+0  35910-3 0  9995
2 48781  87.9013 259.6614 0001970 102.8718 257.2632 13.15550546244333
ONEWEB-0231             
1 48782U 21045R   26165.76576596 -.00000041  00000+0 -14249-3 0  9991
2 48782  87.9004 259.6791 0001794 106.0651 254.0677 13.15548278244025
ONEWEB-0234             
1 48783U 21045S   26165.65154735 -.00000045  00000+0 -15389-3 0  9997
2 48783  87.9012 259.6834 0002675 111.7564 248.3851 13.15548139244147
ONEWEB-0238             
1 48784U 21045T   26165.65181134  .00000039  00000+0  68414-4 0  9990
2 48784  87.9016 259.6777 0002302 107.4562 252.6820 13.15546967244045
ONEWEB-0240             
1 48785U 21045U   26165.82518367 -.00000197  00000+0 -55737-3 0  9992
2 48785  87.9013 259.6535 0001865 110.4409 249.6922 13.15547357244090
ONEWEB-0246             
1 48786U 21045V   26165.51541627 -.00000063  00000+0 -20105-3 0  9997
2 48786  87.9012 259.7196 0001892  98.4970 261.6375 13.15549195243921
ONEWEB-0210             
1 48787U 21045W   26165.79427610  .00000061  00000+0  12868-3 0  9996
2 48787  87.9011 259.6611 0001153  86.8185 273.3077 13.15550881244004
ONEWEB-0214             
1 48788U 21045X   26165.65088897  .00000092  00000+0  20994-3 0  9995
2 48788  87.9013 259.6862 0001825  89.7924 270.3415 13.15548977243953
ONEWEB-0221             
1 48789U 21045Y   26165.81013806 -.00000052  00000+0 -17324-3 0  9993
2 48789  87.9012 259.6631 0001791 103.3697 256.7633 13.15548260244067
ONEWEB-0213             
1 48790U 21045Z   26165.64691891  .00000151  00000+0  36752-3 0  9996
2 48790  87.9011 259.6992 0001675 101.9384 258.1934 13.15547397244101
ONEWEB-0212             
1 48791U 21045AA  26165.77606785 -.00000059  00000+0 -19047-3 0  9996
2 48791  87.9009 259.6678 0002030 101.7845 258.3513 13.15549307244115
ONEWEB-0227             
1 48792U 21045AB  26165.62316572  .00000134  00000+0  32195-3 0  9994
2 48792  87.9007 259.6990 0001923 103.1268 257.0077 13.15549200244041
ONEWEB-0226             
1 48793U 21045AC  26165.76892860 -.00000053  00000+0 -17453-3 0  9991
2 48793  87.9005 259.6748 0001709  99.1972 260.9352 13.15549959244038
ONEWEB-0224             
1 48794U 21045AD  26165.65642578 -.00000016  00000+0 -75764-4 0  9998
2 48794  87.9004 259.7310 0002294 122.9841 237.1510 13.15546731243940
ONEWEB-0233             
1 48795U 21045AE  26165.81316726 -.00000041  00000+0 -14399-3 0  9994
2 48795  87.9002 259.7074 0001765 107.2235 252.9089 13.15548554243986
ONEWEB-0190             
1 48796U 21045AF  26165.26821413  .00000128  00000+0  30663-3 0  9994
2 48796  87.9004 259.7779 0001312 108.6390 251.4883 13.15547434243988
ONEWEB-0236             
1 48797U 21045AG  26165.81806256 -.00000125  00000+0 -36679-3 0  9996
2 48797  87.8999 259.6783 0002100 101.8580 258.2786 13.15548115243947
ONEWEB-0248             
1 48798U 21045AH  26165.75467122 -.00000094  00000+0 -28383-3 0  9993
2 48798  87.9009 259.6744 0001736 114.3261 245.8050 13.15547258244097
