OBJECT_NAME,OBJECT_ID,EPOCH,MEAN_MOTION,ECCENTRICITY,INCLINATION,RA_OF_ASC_NODE,ARG_OF_PERICENTER,MEAN_ANOMALY,EPHEMERIS_TYPE,CLASSIFICATION_TYPE,NORAD_CAT_ID,ELEMENT_SET_NO,REV_AT_EPOCH,BSTAR,MEAN_MOTION_DOT,MEAN_MOTION_DDOT
ONEWEB-0230,2021-045C,2026-06-14T15:42:59.575680,13.15547808,.0002025,87.9001,259.7080,95.5896,264.5466,0,U,48769,999,24433,-.10757E-3,-.28E-6,0
ONEWEB-0237,2021-045D,2026-06-14T15:27:00.093312,13.15547117,.0001717,87.9002,259.7121,101.8921,258.2402,0,U,48770,999,24405,.3373E-3,.14E-5,0
ONEWEB-0235,2021-045E,2026-06-14T18:29:33.608832,13.15548352,.000162,87.9008,259.6724,108.0102,252.1205,0,U,48771,999,24406,-.35279E-4,0,0
ONEWEB-0242,2021-045F,2026-06-14T18:20:24.522144,13.15546788,.0001787,87.9011,259.6705,98.6859,261.4474,0,U,48772,999,24410,-.3128E-3,-.105E-5,0
ONEWEB-0241,2021-045G,2026-06-14T12:33:36.880128,13.15548871,.00018017,87.8998,259.7370,113.0036,247.1285,0,U,48773,999,24398,-.40373564E-3,-.139E-5,0
ONEWEB-0243,2021-045H,2026-06-14T18:47:48.524064,13.15549015,.0001481,87.9001,259.6975,93.2013,266.9287,0,U,48774,999,24404,.27178E-3,.115E-5,0
ONEWEB-0222,2021-045J,2026-06-14T18:23:50.877312,13.15548645,.0001805,87.9007,259.6683,106.4880,253.6449,0,U,48775,999,24408,-.81903E-4,-.18E-6,0
ONEWEB-0244,2021-045K,2026-06-14T19:01:30.168192,13.15548222,.0001824,87.9015,259.6575,101.0589,259.0747,0,U,48776,999,24465,.18314E-3,.82E-6,0
ONEWEB-0247,2021-045L,2026-06-14T18:56:55.671936,13.15547418,.000113,87.9001,259.6907,101.9341,258.1916,0,U,48777,999,24409,.29912E-3,.125E-5,0
ONEWEB-0245,2021-045M,2026-06-14T18:50:04.968672,13.15547478,.0001917,87.9010,259.6706,106.2232,253.9109,0,U,48778,999,24406,.32844E-3,.136E-5,0
ONEWEB-0229,2021-045N,2026-06-14T18:43:14.716416,13.15548784,.000184,87.9009,259.6695,98.6901,261.4438,0,U,48779,999,24409,.18404E-3,.82E-6,0
ONEWEB-0228,2021-045P,2026-06-14T19:31:20.312256,13.15546712,.0001892,87.9015,259.6554,102.3932,257.7410,0,U,48780,999,24401,.9663E-5,.16E-6,0
ONEWEB-0232,2021-045Q,2026-06-14T18:54:38.178432,13.15550546,.000197,87.9013,259.6614,102.8718,257.2632,0,U,48781,999,24433,.3591E-3,.148E-5,0
ONEWEB-0231,2021-045R,2026-06-14T18:22:42.178944,13.15548278,.0001794,87.9004,259.6791,106.0651,254.0677,0,U,48782,999,24402,-.14249E-3,-.41E-6,0
ONEWEB-0234,2021-045S,2026-06-14T15:38:13.691040,13.15548139,.0002675,87.9012,259.6834,111.7564,248.3851,0,U,48783,999,24414,-.15389E-3,-.45E-6,0
ONEWEB-0238,2021-045T,2026-06-14T15:38:36.499776,13.15546967,.0002302,87.9016,259.6777,107.4562,252.6820,0,U,48784,999,24404,.68414E-4,.39E-6,0
ONEWEB-0240,2021-045U,2026-06-14T19:48:15.869088,13.15547357,.0001865,87.9013,259.6535,110.4409,249.6922,0,U,48785,999,24409,-.55737E-3,-.197E-5,0
ONEWEB-0246,2021-045V,2026-06-14T12:22:11.965728,13.15549195,.00018922,87.9012,259.7196,98.4970,261.6375,0,U,48786,999,24392,-.20105385E-3,-.63E-6,0
ONEWEB-0210,2021-045W,2026-06-14T19:03:45.455040,13.15550881,.0001153,87.9011,259.6611,86.8185,273.3077,0,U,48787,999,24400,.12868E-3,.61E-6,0
ONEWEB-0214,2021-045X,2026-06-14T15:37:16.807008,13.15548977,.0001825,87.9013,259.6862,89.7924,270.3415,0,U,48788,999,24395,.20994E-3,.92E-6,0
ONEWEB-0221,2021-045Y,2026-06-14T19:26:35.928384,13.15548260,.0001791,87.9012,259.6631,103.3697,256.7633,0,U,48789,999,24406,-.17324E-3,-.52E-6,0
ONEWEB-0213,2021-045Z,2026-06-14T15:31:33.793824,13.15547397,.0001675,87.9011,259.6992,101.9384,258.1934,0,U,48790,999,24410,.36752E-3,.151E-5,0
ONEWEB-0212,2021-045AA,2026-06-14T18:37:32.262240,13.15549307,.000203,87.9009,259.6678,101.7845,258.3513,0,U,48791,999,24411,-.19047E-3,-.59E-6,0
ONEWEB-0227,2021-045AB,2026-06-14T14:57:21.518208,13.15549200,.0001923,87.9007,259.6990,103.1268,257.0077,0,U,48792,999,24404,.32195E-3,.134E-5,0
ONEWEB-0226,2021-045AC,2026-06-14T18:27:15.431040,13.15549959,.0001709,87.9005,259.6748,99.1972,260.9352,0,U,48793,999,24403,-.17453E-3,-.53E-6,0
ONEWEB-0224,2021-045AD,2026-06-14T15:45:15.187392,13.15546731,.0002294,87.9004,259.7310,122.9841,237.1510,0,U,48794,999,24394,-.75764E-4,-.16E-6,0
ONEWEB-0233,2021-045AE,2026-06-14T19:30:57.651264,13.15548554,.0001765,87.9002,259.7074,107.2235,252.9089,0,U,48795,999,24398,-.14399E-3,-.41E-6,0
ONEWEB-0190,2021-045AF,2026-06-14T06:26:13.700832,13.15547434,.0001312,87.9004,259.7779,108.6390,251.4883,0,U,48796,999,24398,.30663E-3,.128E-5,0
ONEWEB-0236,2021-045AG,2026-06-14T19:38:00.605184,13.15548115,.00021,87.8999,259.6783,101.8580,258.2786,0,U,48797,999,24394,-.36679E-3,-.125E-5,0
ONEWEB-0248,2021-045AH,2026-06-14T18:06:43.593408,13.15547258,.0001736,87.9009,259.6744,114.3261,245.8050,0,U,48798,999,24409,-.28383E-3,-.94E-6,0
